GLOBALSTAR M079 [+]     
1 37188U 10054A   23003.19962498 -.00000089  00000+0  84202-4 0  9990
2 37188  52.0058 347.3208 0000423  75.0688 297.5370 12.62265235563987
GLOBALSTAR M074 [+]     
1 37189U 10054B   23002.70656029 -.00000096  00000+0  45563-4 0  9992
2 37189  52.0038 348.2832 0000260  56.9175 114.2210 12.62265083563841
GLOBALSTAR M076 [+]     
1 37190U 10054C   23003.44484704 -.00000097  00000+0  36026-4 0  9990
2 37190  52.0051 346.1235 0000413 124.7057  43.9290 12.62270038564017
GLOBALSTAR M077 [+]     
1 37191U 10054D   23003.59089692 -.00000090  00000+0  75324-4 0  9991
2 37191  52.0083 302.2805 0000570  53.7122 117.1436 12.62267458564789
GLOBALSTAR M075 [+]     
1 37192U 10054E   23002.82499168 -.00000091  00000+0  74024-4 0  9997
2 37192  51.9963  30.7632 0000570 118.6289  52.8783 12.62270446562803
GLOBALSTAR M073 [+]     
1 37193U 10054F   23003.21573198 -.00000093  00000+0  60829-4 0  9998
2 37193  52.0072 302.7131 0000563  56.1037  90.8255 12.62269552564738
GLOBALSTAR M083 [+]     
1 37739U 11033A   23002.96175034 -.00000088  00000+0  90357-4 0  9993
2 37739  51.9848 253.4415 0001178  62.9650 310.2303 12.62266472534030
GLOBALSTAR M088 [+]     
1 37740U 11033B   23003.20769777 -.00000097  00000+0  35230-4 0  9995
2 37740  51.9712 158.9354 0001399  98.1158  73.2633 12.62268481529535
GLOBALSTAR M091 [+]     
1 37741U 11033C   23002.82560317 -.00000113  00000+0 -50233-4 0  9992
2 37741  51.9993 122.0509 0001203 104.7210  68.7414 12.62270040529987
GLOBALSTAR M085 [+]     
1 37742U 11033D   23003.59839361 -.00000110  00000+0 -33783-4 0  9994
2 37742  51.9879  71.5296 0000746 118.6907  28.9242 12.62265493531087
GLOBALSTAR M081 [+]     
1 37743U 11033E   23003.62631703 -.00000096  00000+0  42252-4 0  9992
2 37743  51.9969  73.6818 0000962 126.3793  26.3203 12.62265769531120
GLOBALSTAR M089 [+]     
1 37744U 11033F   23003.50987319 -.00000081  00000+0  12768-3 0  9999
2 37744  51.9949  28.4304 0000382 167.1361 357.7489 12.62270633531827
GLOBALSTAR M084 [+]     
1 38040U 11080A   23003.44536587 -.00000085  00000+0  10438-3 0  9997
2 38040  51.9999 255.4433 0000691  70.9301 100.1011 12.62266019509824
GLOBALSTAR M080 [+]     
1 38041U 11080B   23002.85202867 -.00000083  00000+0  11671-3 0  9991
2 38041  52.0052 258.5407 0000671  85.2239  28.5904 12.62269135509599
GLOBALSTAR M082 [+]     
1 38042U 11080C   23003.11107053 -.00000071  00000+0  18144-3 0  9992
2 38042  52.0047 213.1047 0001486  64.1860  86.3902 12.62266355510506
GLOBALSTAR M092 [+]     
1 38043U 11080D   23003.13409039 -.00000100  00000+0  18583-4 0  9995
2 38043  52.0096 303.3652 0000366  24.7603 348.9215 12.62265634509004
GLOBALSTAR M090 [+]     
1 38044U 11080E   23002.86984679 -.00000076  00000+0  15443-3 0  9996
2 38044  51.9856 208.8023 0001285  80.1870 294.1346 12.62268492510421
GLOBALSTAR M086 [+]     
1 38045U 11080F   23003.00583032 -.00000070  00000+0  18961-3 0  9994
2 38045  51.9868 208.8685 0001975 110.5590  42.5993 12.62268010510487
GLOBALSTAR M097 [+]     
1 39072U 13005A   23002.76101925 -.00000122  00000+0 -10098-3 0  9995
2 39072  52.0040 123.2467 0001283 108.5407 251.5600 12.62281140457606
GLOBALSTAR M093 [+]     
1 39073U 13005B   23003.05138273 -.00000114  00000+0 -54821-4 0  9999
2 39073  51.9808 117.1019 0001363 106.3173 253.7844 12.62267206457710
GLOBALSTAR M094 [+]     
1 39074U 13005C   23003.36820191 -.00000087  00000+0  95802-4 0  9993
2 39074  51.9974  29.6252 0000479 121.0791 239.0123 12.62266616459261
GLOBALSTAR M096 [+]     
1 39075U 13005D   23002.90630806 -.00000111  00000+0 -41224-4 0  9993
2 39075  52.0083  78.8450 0000966 119.2679 240.8284 12.62268826458101
GLOBALSTAR M078 [+]     
1 39076U 13005E   23002.87964787 -.00000088  00000+0  88886-4 0  9995
2 39076  51.9852 164.6529 0001176  53.2982 306.7992 12.62276853456726
GLOBALSTAR M095 [+]     
1 39077U 13005F   23002.90611667 -.00000093  00000+0  57875-4 0  9996
2 39077  51.9777 162.2146 0001495  77.8368 282.2666 12.62262428456589
GLOBALSTAR FM15 [+]     
1 52888U 22064A   23002.67208593 -.00000128  00000+0  00000+0 0  9992
2 52888  51.9804 261.6870 0010212  95.2016 265.0051 13.37547336 26390
